1 25789U 99034A   05001.11358758  .00000005  00000-0  20319-4 0  2098
2 25789  98.6358 190.1660 0001053  26.0691 334.0540 14.26693013288303
